[{"OBJECT_NAME":"STARLINK-6086","OBJECT_ID":"2023-065AU","EPOCH":"2026-03-09T22:00:01.999584","MEAN_MOTION":15.14957238,"ECCENTRICITY":0.00012443,"INCLINATION":43.0008,"RA_OF_ASC_NODE":221.4166,"ARG_OF_PERICENTER":294.4132,"MEAN_ANOMALY":193.3936,"EPHEMERIS_TYPE":0,"CLASSIFICATION_TYPE":"U","NORAD_CAT_ID":56545,"ELEMENT_SET_NO":999,"REV_AT_EPOCH":577,"BSTAR":0.0067499793,"MEAN_MOTION_DOT":0.00130285,"MEAN_MOTION_DDOT":0},{"OBJECT_NAME":"VANGUARD 3","OBJECT_ID":"1959-007A","EPOCH":"2026-03-09T21:30:28.728576","MEAN_MOTION":11.61868948,"ECCENTRICITY":0.16385199,"INCLINATION":33.3518,"RA_OF_ASC_NODE":264.4218,"ARG_OF_PERICENTER":241.275,"MEAN_ANOMALY":101.361,"EPHEMERIS_TYPE":0,"CLASSIFICATION_TYPE":"U","NORAD_CAT_ID":20,"ELEMENT_SET_NO":999,"REV_AT_EPOCH":47306,"BSTAR":0.00038398174,"MEAN_MOTION_DOT":1.001e-5,"MEAN_MOTION_DDOT":0}]
